DMSP 5D-3 F16 (USA 172) 
1 28054U 03048A   26159.17856551  .00000030  00000+0  39350-4 0  9991
2 28054  98.9892 182.9471 0007308 163.8776 244.5369 14.14482417168211
METEOSAT-9 (MSG-2)      
1 28912U 05049B   26158.97455411  .00000137  00000+0  00000+0 0  9997
2 28912   9.3397  54.2567 0001749 351.8629 246.7838  1.00268603  6908
DMSP 5D-3 F17 (USA 191) 
1 29522U 06050A   26159.18935538  .00000064  00000+0  55433-4 0  9999
2 29522  98.7377 165.9435 0011324  82.4895 277.7565 14.14991901 11159
FENGYUN 3A              
1 32958U 08026A   26159.09590897  .00000086  00000+0  61350-4 0  9995
2 32958  98.6881 100.0993 0009205 147.7099 212.4642 14.19569313934115
GOES 14                 
1 35491U 09033A   26158.63128661 -.00000237  00000+0  00000+0 0  9993
2 35491   1.6645  83.1599 0001995   3.5143 183.9218  1.00114378  6497
DMSP 5D-3 F18 (USA 210) 
1 35951U 09057A   26159.16013141  .00000247  00000+0  15085-3 0  9998
2 35951  98.9034 139.9491 0009878 278.3486  81.6567 14.14891708858315
EWS-G2 (GOES 15)        
1 36411U 10008A   26159.14836492  .00000034  00000+0  00000+0 0  9999
2 36411   1.2520  83.0108 0005488  37.9746 252.5669  1.00275825 59546
COMS 1                  
1 36744U 10032A   26154.99142485 -.00000334  00000+0  00000+0 0  9999
2 36744   4.7750  75.5286 0001016   4.5847 297.3769  1.00270643 50953
FENGYUN 3B              
1 37214U 10059A   26159.18664400  .00000277  00000+0  16682-3 0  9995
2 37214  98.9621 205.1627 0021443 210.0429 239.4804 14.14840711806150
SUOMI NPP               
1 37849U 11061A   26159.10686351  .00000077  00000+0  57700-4 0  9999
2 37849  98.7952 100.0451 0002025  26.7312 333.3968 14.19515567757158
METEOSAT-10 (MSG-3)     
1 38552U 12035B   26159.05851455  .00000010  00000+0  00000+0 0  9999
2 38552   4.6491  61.0583 0001633 335.2386 241.4327  1.00275787 50763
METOP-B                 
1 38771U 12049A   26159.17952848  .00000096  00000+0  63772-4 0  9992
2 38771  98.6507 210.8581 0002754  40.5698 319.5684 14.21430293711989
INSAT-3D                
1 39216U 13038B   26158.94156252 -.00000323  00000+0  00000+0 0  9999
2 39216   1.9012  82.6620 0000827 320.2879 321.8554  1.00274228 46989
FENGYUN 3C              
1 39260U 13052A   26159.20962089  .00000092  00000+0  67838-4 0  9996
2 39260  98.4975 133.4969 0015648  52.1181 308.1407 14.15753076657292
METEOR-M 2              
1 40069U 14037A   26159.20606160  .00000108  00000+0  68589-4 0  9996
2 40069  98.5114 135.2629 0007008  66.0686 294.1225 14.21458677618043
HIMAWARI-8              
1 40267U 14060A   26158.94381588 -.00000260  00000+0  00000+0 0  9995
2 40267   0.0228  57.4688 0000851  43.2318 276.0876  1.00270864 42668
FENGYUN 2G              
1 40367U 14090A   26158.79303955 -.00000288  00000+0  00000+0 0  9994
2 40367   5.6148  72.9276 0003377 153.3297  55.0224  1.00277410 41903
METEOSAT-11 (MSG-4)     
1 40732U 15034A   26159.13172597  .00000079  00000+0  00000+0 0  9991
2 40732   3.1797  71.1607 0001692   5.8565 236.3558  1.00277499  7125
ELEKTRO-L 2             
1 41105U 15074A   26159.05543303 -.00000103  00000+0  00000+0 0  9997
2 41105   6.6705  70.6343 0001134 284.8984 266.3917  1.00272046 38414
SENTINEL-3A             
1 41335U 16011A   26159.16981226  .00000100  00000+0  59468-4 0  9999
2 41335  98.6249 226.6826 0001352 104.3433 255.7897 14.26737516536770
INSAT-3DR               
1 41752U 16054A   26159.07324794 -.00000061  00000+0  00000+0 0  9990
2 41752   0.0818  87.6483 0010385 186.7487  82.4339  1.00270655 35724
HIMAWARI-9              
1 41836U 16064A   26158.94381588 -.00000259  00000+0  00000+0 0  9992
2 41836   0.0275 164.0399 0000882 311.6256 261.2219  1.00273025 35115
GOES 16                 
1 41866U 16071A   26159.10913412 -.00000075  00000+0  00000+0 0  9995
2 41866   0.3165  85.6192 0000466 315.5886 149.9183  1.00270738 35017
FENGYUN 4A              
1 41882U 16077A   26159.01175635 -.00000341  00000+0  00000+0 0  9992
2 41882   2.2987  80.3819 0008239 151.4381 152.5907  1.00274370 34838
CYGFM05                 
1 41884U 16078A   26159.13588580  .00021149  00000+0  29099-3 0  9996
2 41884  34.9577 320.5088 0006939  57.2733 302.8659 15.56264978527349
CYGFM04                 
1 41885U 16078B   26159.07040567  .00030386  00000+0  34874-3 0  9998
2 41885  34.9327 289.0859 0005960 104.2371 255.9016 15.61001382527576
CYGFM02                 
1 41886U 16078C   26158.76915222  .00034711  00000+0  35547-3 0  9997
2 41886  34.9410 285.9023 0006939 102.1457 258.0047 15.63886780527693
CYGFM01                 
1 41887U 16078D   26158.87202991  .00025246  00000+0  33868-3 0  9999
2 41887  34.9407 323.3879 0006911  47.7074 312.4235 15.56917446527257
CYGFM08                 
1 41888U 16078E   26158.71929493  .00029673  00000+0  36036-3 0  9994
2 41888  34.9437 304.2251 0007839  81.2519 278.9093 15.59518568527499
CYGFM07                 
1 41890U 16078G   26158.67904067  .00029729  00000+0  35980-3 0  9991
2 41890  34.9451 292.8440 0006346  98.7772 261.3672 15.59620789527517
CYGFM03                 
1 41891U 16078H   26158.77801366  .00027308  00000+0  33072-3 0  9992
2 41891  34.9404 294.1248 0005908  86.1053 274.0347 15.59618754527501
